HIMAWARI-8              
1 40267U 14060A   23269.68799448 -.00000289  00000+0  00000+0 0  9995
2 40267   0.0267 174.3733 0000946  32.1186 187.0790  1.00269277 32892
